ONEWEB-0142             
1 47288U 20100AG  26075.07054238 -.00000477  00000+0 -13607-2 0  9999
2 47288  87.9007   9.1526 0002022  68.3268 291.8075 13.12444098252450
ONEWEB-0143             
1 47289U 20100AH  26075.08056971 -.00000358  00000+0 -10305-2 0  9997
2 47289  87.9012   9.1472 0001811  77.8196 282.3135 13.12443593252436
ONEWEB-0144             
1 47290U 20100AJ  26075.20424279  .00000123  00000+0  30561-3 0  9998
2 47290  87.9014   9.0928 0002172  77.0114 283.1257 13.12440456252370
ONEWEB-0145             
1 47291U 20100AK  26075.17545628  .00000336  00000+0  89758-3 0  9995
2 47291  87.9006   9.1365 0001929  77.6084 282.5260 13.12443706252568
ONEWEB-0146             
1 47292U 20100AL  26075.17205230  .00000138  00000+0  34715-3 0  9991
2 47292  87.9009   9.1222 0001562  86.6494 273.4813 13.12442245252472
ONEWEB-0147             
1 47293U 20100AM  26075.06193727 -.00000307  00000+0 -88818-3 0  9990
2 47293  87.9013   9.1241 0002024  85.4851 274.6508 13.12442642252359
ONEWEB-0115             
1 48042U 21025A   26075.16287084  .00000186  00000+0  47393-3 0  9997
2 48042  87.9038 338.7278 0001702  80.4206 279.7116 13.13471149241388
ONEWEB-0152             
1 48043U 21025B   26075.17641545  .00000347  00000+0  91576-3 0  9996
2 48043  87.9032 338.7264 0001651  82.1874 277.9443 13.13470755241342
ONEWEB-0153             
1 48044U 21025C   26075.15440726 -.00000107  00000+0 -32723-3 0  9998
2 48044  87.9031 338.7357 0001808  76.9312 283.2019 13.13471347241333
ONEWEB-0154             
1 48045U 21025D   26075.15100782 -.00000097  00000+0 -29933-3 0  9991
2 48045  87.9033 338.7340 0001773  81.9501 278.1829 13.13472582241294
ONEWEB-0116             
1 48046U 21025E   26075.18995758  .00000225  00000+0  58045-3 0  9997
2 48046  87.9040 338.7151 0001653  82.3435 277.7882 13.13470270241444
ONEWEB-0150             
1 48047U 21025F   26075.16625744  .00000211  00000+0  54302-3 0  9998
2 48047  87.9040 338.7171 0001659  72.7754 287.3557 13.13471024241332
ONEWEB-0107             
1 48048U 21025G   26075.16795417  .00000290  00000+0  75894-3 0  9990
2 48048  87.9038 338.7121 0001963  73.7820 286.3526 13.13470368241311
ONEWEB-0101             
1 48049U 21025H   26075.20688751 -.00000161  00000+0 -47584-3 0  9992
2 48049  87.9031 338.7296 0001895  79.1371 280.9971 13.13470130241291
ONEWEB-0113             
1 48050U 21025J   26075.18716793  .00000248  00000+0  64088-3 0  9991
2 48050  87.9041 338.6523 0001475  88.4426 271.6873 13.13950689241395
ONEWEB-0112             
1 48051U 21025K   26075.17302751  .00000266  00000+0  69234-3 0  9994
2 48051  87.9039 338.7087 0002012  79.9392 280.1964 13.13471819241382
