[{"OBJECT_NAME":"ONEWEB-0142","OBJECT_ID":"2020-100AG","EPOCH":"2026-03-16T01:41:34.861632","MEAN_MOTION":13.12444098,"ECCENTRICITY":0.00020225,"INCLINATION":87.9007,"RA_OF_ASC_NODE":9.1526,"ARG_OF_PERICENTER":68.3268,"MEAN_ANOMALY":291.8075,"EPHEMERIS_TYPE":0,"CLASSIFICATION_TYPE":"U","NORAD_CAT_ID":47288,"ELEMENT_SET_NO":999,"REV_AT_EPOCH":25245,"BSTAR":-0.0013606722,"MEAN_MOTION_DOT":-4.77e-6,"MEAN_MOTION_DDOT":0},{"OBJECT_NAME":"ONEWEB-0143","OBJECT_ID":"2020-100AH","EPOCH":"2026-03-16T01:56:01.222944","MEAN_MOTION":13.12443593,"ECCENTRICITY":0.00018115,"INCLINATION":87.9012,"RA_OF_ASC_NODE":9.1472,"ARG_OF_PERICENTER":77.8196,"MEAN_ANOMALY":282.3135,"EPHEMERIS_TYPE":0,"CLASSIFICATION_TYPE":"U","NORAD_CAT_ID":47289,"ELEMENT_SET_NO":999,"REV_AT_EPOCH":25243,"BSTAR":-0.0010305438,"MEAN_MOTION_DOT":-3.58e-6,"MEAN_MOTION_DDOT":0},{"OBJECT_NAME":"ONEWEB-0144","OBJECT_ID":"2020-100AJ","EPOCH":"2026-03-16T04:54:06.577056","MEAN_MOTION":13.12440456,"ECCENTRICITY":0.00021727,"INCLINATION":87.9014,"RA_OF_ASC_NODE":9.0928,"ARG_OF_PERICENTER":77.0114,"MEAN_ANOMALY":283.1257,"EPHEMERIS_TYPE":0,"CLASSIFICATION_TYPE":"U","NORAD_CAT_ID":47290,"ELEMENT_SET_NO":999,"REV_AT_EPOCH":25237,"BSTAR":0.00030560521,"MEAN_MOTION_DOT":1.23e-6,"MEAN_MOTION_DDOT":0},{"OBJECT_NAME":"ONEWEB-0145","OBJECT_ID":"2020-100AK","EPOCH":"2026-03-16T04:12:39.422592","MEAN_MOTION":13.12443706,"ECCENTRICITY":0.00019294,"INCLINATION":87.9006,"RA_OF_ASC_NODE":9.1365,"ARG_OF_PERICENTER":77.6084,"MEAN_ANOMALY":282.526,"EPHEMERIS_TYPE":0,"CLASSIFICATION_TYPE":"U","NORAD_CAT_ID":47291,"ELEMENT_SET_NO":999,"REV_AT_EPOCH":25256,"BSTAR":0.00089757793,"MEAN_MOTION_DOT":3.36e-6,"MEAN_MOTION_DDOT":0},{"OBJECT_NAME":"ONEWEB-0146","OBJECT_ID":"2020-100AL","EPOCH":"2026-03-16T04:07:45.318720","MEAN_MOTION":13.12442245,"ECCENTRICITY":0.00015629,"INCLINATION":87.9009,"RA_OF_ASC_NODE":9.1222,"ARG_OF_PERICENTER":86.6494,"MEAN_ANOMALY":273.4813,"EPHEMERIS_TYPE":0,"CLASSIFICATION_TYPE":"U","NORAD_CAT_ID":47292,"ELEMENT_SET_NO":999,"REV_AT_EPOCH":25247,"BSTAR":0.00034715329,"MEAN_MOTION_DOT":1.38e-6,"MEAN_MOTION_DDOT":0},{"OBJECT_NAME":"ONEWEB-0147","OBJECT_ID":"2020-100AM","EPOCH":"2026-03-16T01:29:11.380128","MEAN_MOTION":13.12442642,"ECCENTRICITY":0.00020243,"INCLINATION":87.9013,"RA_OF_ASC_NODE":9.1241,"ARG_OF_PERICENTER":85.4851,"MEAN_ANOMALY":274.6508,"EPHEMERIS_TYPE":0,"CLASSIFICATION_TYPE":"U","NORAD_CAT_ID":47293,"ELEMENT_SET_NO":999,"REV_AT_EPOCH":25235,"BSTAR":-0.00088818116,"MEAN_MOTION_DOT":-3.07e-6,"MEAN_MOTION_DDOT":0},{"OBJECT_NAME":"ONEWEB-0115","OBJECT_ID":"2021-025A","EPOCH":"2026-03-16T03:54:32.040576","MEAN_MOTION":13.13471149,"ECCENTRICITY":0.00017022,"INCLINATION":87.9038,"RA_OF_ASC_NODE":338.7278,"ARG_OF_PERICENTER":80.4206,"MEAN_ANOMALY":279.7116,"EPHEMERIS_TYPE":0,"CLASSIFICATION_TYPE":"U","NORAD_CAT_ID":48042,"ELEMENT_SET_NO":999,"REV_AT_EPOCH":24138,"BSTAR":0.00047393297,"MEAN_MOTION_DOT":1.86e-6,"MEAN_MOTION_DDOT":0},{"OBJECT_NAME":"ONEWEB-0152","OBJECT_ID":"2021-025B","EPOCH":"2026-03-16T04:14:02.294880","MEAN_MOTION":13.13470755,"ECCENTRICITY":0.00016519,"INCLINATION":87.9032,"RA_OF_ASC_NODE":338.7264,"ARG_OF_PERICENTER":82.1874,"MEAN_ANOMALY":277.9443,"EPHEMERIS_TYPE":0,"CLASSIFICATION_TYPE":"U","NORAD_CAT_ID":48043,"ELEMENT_SET_NO":999,"REV_AT_EPOCH":24134,"BSTAR":0.00091575584,"MEAN_MOTION_DOT":3.47e-6,"MEAN_MOTION_DDOT":0},{"OBJECT_NAME":"ONEWEB-0153","OBJECT_ID":"2021-025C","EPOCH":"2026-03-16T03:42:20.787264","MEAN_MOTION":13.13471347,"ECCENTRICITY":0.00018086,"INCLINATION":87.9031,"RA_OF_ASC_NODE":338.7357,"ARG_OF_PERICENTER":76.9312,"MEAN_ANOMALY":283.2019,"EPHEMERIS_TYPE":0,"CLASSIFICATION_TYPE":"U","NORAD_CAT_ID":48044,"ELEMENT_SET_NO":999,"REV_AT_EPOCH":24133,"BSTAR":-0.00032722785,"MEAN_MOTION_DOT":-1.07e-6,"MEAN_MOTION_DDOT":0},{"OBJECT_NAME":"ONEWEB-0154","OBJECT_ID":"2021-025D","EPOCH":"2026-03-16T03:37:27.075648","MEAN_MOTION":13.13472582,"ECCENTRICITY":0.00017735,"INCLINATION":87.9033,"RA_OF_ASC_NODE":338.734,"ARG_OF_PERICENTER":81.9501,"MEAN_ANOMALY":278.1829,"EPHEMERIS_TYPE":0,"CLASSIFICATION_TYPE":"U","NORAD_CAT_ID":48045,"ELEMENT_SET_NO":999,"REV_AT_EPOCH":24129,"BSTAR":-0.00029932742,"MEAN_MOTION_DOT":-9.7e-7,"MEAN_MOTION_DDOT":0},{"OBJECT_NAME":"ONEWEB-0116","OBJECT_ID":"2021-025E","EPOCH":"2026-03-16T04:33:32.334912","MEAN_MOTION":13.1347027,"ECCENTRICITY":0.00016537,"INCLINATION":87.904,"RA_OF_ASC_NODE":338.7151,"ARG_OF_PERICENTER":82.3435,"MEAN_ANOMALY":277.7882,"EPHEMERIS_TYPE":0,"CLASSIFICATION_TYPE":"U","NORAD_CAT_ID":48046,"ELEMENT_SET_NO":999,"REV_AT_EPOCH":24144,"BSTAR":0.00058045421,"MEAN_MOTION_DOT":2.25e-6,"MEAN_MOTION_DDOT":0},{"OBJECT_NAME":"ONEWEB-0150","OBJECT_ID":"2021-025F","EPOCH":"2026-03-16T03:59:24.642816","MEAN_MOTION":13.13471024,"ECCENTRICITY":0.00016599,"INCLINATION":87.904,"RA_OF_ASC_NODE":338.7171,"ARG_OF_PERICENTER":72.7754,"MEAN_ANOMALY":287.3557,"EPHEMERIS_TYPE":0,"CLASSIFICATION_TYPE":"U","NORAD_CAT_ID":48047,"ELEMENT_SET_NO":999,"REV_AT_EPOCH":24133,"BSTAR":0.00054302276,"MEAN_MOTION_DOT":2.11e-6,"MEAN_MOTION_DDOT":0},{"OBJECT_NAME":"ONEWEB-0107","OBJECT_ID":"2021-025G","EPOCH":"2026-03-16T04:01:51.240288","MEAN_MOTION":13.13470368,"ECCENTRICITY":0.0001963,"INCLINATION":87.9038,"RA_OF_ASC_NODE":338.7121,"ARG_OF_PERICENTER":73.782,"MEAN_ANOMALY":286.3526,"EPHEMERIS_TYPE":0,"CLASSIFICATION_TYPE":"U","NORAD_CAT_ID":48048,"ELEMENT_SET_NO":999,"REV_AT_EPOCH":24131,"BSTAR":0.00075893514,"MEAN_MOTION_DOT":2.9e-6,"MEAN_MOTION_DDOT":0},{"OBJECT_NAME":"ONEWEB-0101","OBJECT_ID":"2021-025H","EPOCH":"2026-03-16T04:57:55.080864","MEAN_MOTION":13.1347013,"ECCENTRICITY":0.00018957,"INCLINATION":87.9031,"RA_OF_ASC_NODE":338.7296,"ARG_OF_PERICENTER":79.1371,"MEAN_ANOMALY":280.9971,"EPHEMERIS_TYPE":0,"CLASSIFICATION_TYPE":"U","NORAD_CAT_ID":48049,"ELEMENT_SET_NO":999,"REV_AT_EPOCH":24129,"BSTAR":-0.00047584026,"MEAN_MOTION_DOT":-1.61e-6,"MEAN_MOTION_DDOT":0},{"OBJECT_NAME":"ONEWEB-0113","OBJECT_ID":"2021-025J","EPOCH":"2026-03-16T04:29:31.309152","MEAN_MOTION":13.13950689,"ECCENTRICITY":0.00014753,"INCLINATION":87.9041,"RA_OF_ASC_NODE":338.6523,"ARG_OF_PERICENTER":88.4426,"MEAN_ANOMALY":271.6873,"EPHEMERIS_TYPE":0,"CLASSIFICATION_TYPE":"U","NORAD_CAT_ID":48050,"ELEMENT_SET_NO":999,"REV_AT_EPOCH":24139,"BSTAR":0.00064087738,"MEAN_MOTION_DOT":2.48e-6,"MEAN_MOTION_DDOT":0},{"OBJECT_NAME":"ONEWEB-0112","OBJECT_ID":"2021-025K","EPOCH":"2026-03-16T04:09:09.576864","MEAN_MOTION":13.13471819,"ECCENTRICITY":0.00020125,"INCLINATION":87.9039,"RA_OF_ASC_NODE":338.7087,"ARG_OF_PERICENTER":79.9392,"MEAN_ANOMALY":280.1964,"EPHEMERIS_TYPE":0,"CLASSIFICATION_TYPE":"U","NORAD_CAT_ID":48051,"ELEMENT_SET_NO":999,"REV_AT_EPOCH":24138,"BSTAR":0.00069233809,"MEAN_MOTION_DOT":2.66e-6,"MEAN_MOTION_DDOT":0}]
